STARLINK-37135          
1 68602U 26073A   26106.68141624  .00041272  00000+0  21595-3 0  9997
2 68602  97.2853 304.2760 0000178 122.2893 237.8393 15.80739549  1538
