{
  "norad_id": 68602,
  "name": "STARLINK-37135",
  "history": [
    {
      "epoch": "2026-04-16T16:21:14.363136Z",
      "apogee_km": 328.46744199431123,
      "perigee_km": 328.2286911259416,
      "latitude_deg": 6.22813391209261e-05,
      "longitude_deg": -145.8594876238776,
      "height_km": 331.58734449080674,
      "semi_major_axis_km": 6706.485066560126,
      "eccentricity": 1.78e-05,
      "inclination_deg": 97.2853,
      "raan_deg": 304.276,
      "arg_perigee_deg": 122.2893,
      "mean_anomaly_deg": 237.8393,
      "mean_motion_rev_day": 15.80739549
    }
  ]
}